{
  "norad_id": 61244,
  "name": "STARLINK-11276 [DTC]",
  "history": [
    {
      "epoch": "2026-04-14T16:56:09.076704Z",
      "apogee_km": 360.3243919187853,
      "perigee_km": 359.1614338458212,
      "latitude_deg": -5.265388614594976e-05,
      "longitude_deg": 141.7705977436681,
      "height_km": 360.6317599676965,
      "semi_major_axis_km": 6737.879912882303,
      "eccentricity": 8.63e-05,
      "inclination_deg": 53.1593,
      "raan_deg": 238.6867,
      "arg_perigee_deg": 87.5303,
      "mean_anomaly_deg": 272.5813,
      "mean_motion_rev_day": 15.69704352
    },
    {
      "epoch": "2026-04-15T14:19:43.156128Z",
      "apogee_km": 360.50366610843867,
      "perigee_km": 359.06309873067676,
      "latitude_deg": 5.692728064494527e-05,
      "longitude_deg": 175.60471234761232,
      "height_km": 360.88266459455804,
      "semi_major_axis_km": 6737.920382419557,
      "eccentricity": 0.0001069,
      "inclination_deg": 53.1609,
      "raan_deg": 234.2913,
      "arg_perigee_deg": 104.9203,
      "mean_anomaly_deg": 255.1934,
      "mean_motion_rev_day": 15.6969021
    },
    {
      "epoch": "2026-04-16T19:21:42.610752Z",
      "apogee_km": 360.37216724908467,
      "perigee_km": 359.0987093582453,
      "latitude_deg": 3.934005112950962e-05,
      "longitude_deg": 92.95162357016073,
      "height_km": 360.581357579511,
      "semi_major_axis_km": 6737.872438303664,
      "eccentricity": 9.45e-05,
      "inclination_deg": 53.159,
      "raan_deg": 228.3283,
      "arg_perigee_deg": 83.884,
      "mean_anomaly_deg": 276.2286,
      "mean_motion_rev_day": 15.69706964
    },
    {
      "epoch": "2026-04-17T16:45:17.266464Z",
      "apogee_km": 360.4263467415267,
      "perigee_km": 359.0493946329534,
      "latitude_deg": -6.259196186812078e-05,
      "longitude_deg": 126.78537235795288,
      "height_km": 360.61600484339374,
      "semi_major_axis_km": 6737.874870687239,
      "eccentricity": 0.00010218,
      "inclination_deg": 53.1587,
      "raan_deg": 223.9351,
      "arg_perigee_deg": 87.0446,
      "mean_anomaly_deg": 273.0688,
      "mean_motion_rev_day": 15.69706114
    },
    {
      "epoch": "2026-04-18T14:08:50.952768Z",
      "apogee_km": 360.38612628814644,
      "perigee_km": 359.0425987264616,
      "latitude_deg": -5.1035922693812626e-05,
      "longitude_deg": 160.62255512589596,
      "height_km": 360.56812845573927,
      "semi_major_axis_km": 6737.851362507304,
      "eccentricity": 9.97e-05,
      "inclination_deg": 53.1588,
      "raan_deg": 219.5412,
      "arg_perigee_deg": 84.883,
      "mean_anomaly_deg": 275.2301,
      "mean_motion_rev_day": 15.69714329
    },
    {
      "epoch": "2026-04-19T11:32:25.300896Z",
      "apogee_km": 360.4038485069359,
      "perigee_km": 359.03862367114016,
      "latitude_deg": 1.3634803615350525e-05,
      "longitude_deg": -165.54358863770906,
      "height_km": 360.66624134305704,
      "semi_major_axis_km": 6737.858236089038,
      "eccentricity": 0.00010131,
      "inclination_deg": 53.1585,
      "raan_deg": 215.1467,
      "arg_perigee_deg": 92.6361,
      "mean_anomaly_deg": 267.4773,
      "mean_motion_rev_day": 15.69711927
    },
    {
      "epoch": "2026-04-20T13:31:03.700128Z",
      "apogee_km": 360.55888004140616,
      "perigee_km": 358.9002868032294,
      "latitude_deg": -4.234489075920005e-05,
      "longitude_deg": 158.39261979623092,
      "height_km": 360.1614947047994,
      "semi_major_axis_km": 6737.8665834223175,
      "eccentricity": 0.00012308,
      "inclination_deg": 53.1591,
      "raan_deg": 209.8098,
      "arg_perigee_deg": 54.4813,
      "mean_anomaly_deg": 305.6319,
      "mean_motion_rev_day": 15.6970901
    },
    {
      "epoch": "2026-04-21T06:19:33.344832Z",
      "apogee_km": 360.6613980658658,
      "perigee_km": 358.7890809067576,
      "latitude_deg": 3.802794686139688e-05,
      "longitude_deg": -97.87233124925692,
      "height_km": 360.3049523967498,
      "semi_major_axis_km": 6737.862239486311,
      "eccentricity": 0.00013894,
      "inclination_deg": 53.1584,
      "raan_deg": 206.3586,
      "arg_perigee_deg": 69.1302,
      "mean_anomaly_deg": 290.9865,
      "mean_motion_rev_day": 15.69710528
    },
    {
      "epoch": "2026-04-22T12:53:15.826272Z",
      "apogee_km": 360.8237069370807,
      "perigee_km": 358.6805191680014,
      "latitude_deg": 9.472667560772641e-06,
      "longitude_deg": 156.16890969964757,
      "height_km": 360.6132056855266,
      "semi_major_axis_km": 6737.889113052541,
      "eccentricity": 0.00015904,
      "inclination_deg": 53.1597,
      "raan_deg": 200.082,
      "arg_perigee_deg": 87.2263,
      "mean_anomaly_deg": 272.8937,
      "mean_motion_rev_day": 15.69701137
    },
    {
      "epoch": "2026-04-23T11:48:31.023936Z",
      "apogee_km": 360.1030941198869,
      "perigee_km": 359.411651399354,
      "latitude_deg": 3.617715417564655e-05,
      "longitude_deg": 166.70567656301176,
      "height_km": 360.5074925831486,
      "semi_major_axis_km": 6737.894372759621,
      "eccentricity": 5.131e-05,
      "inclination_deg": 53.1603,
      "raan_deg": 195.3734,
      "arg_perigee_deg": 61.6045,
      "mean_anomaly_deg": 298.5025,
      "mean_motion_rev_day": 15.69699299
    },
    {
      "epoch": "2026-04-24T12:15:27.319104Z",
      "apogee_km": 360.4070277648825,
      "perigee_km": 359.0405895928825,
      "latitude_deg": -7.1615419144292434e-06,
      "longitude_deg": 153.9459961583295,
      "height_km": 360.3616656167918,
      "semi_major_axis_km": 6737.860808678883,
      "eccentricity": 0.0001014,
      "inclination_deg": 53.1601,
      "raan_deg": 190.3524,
      "arg_perigee_deg": 66.1689,
      "mean_anomaly_deg": 293.9435,
      "mean_motion_rev_day": 15.69711028
    },
    {
      "epoch": "2026-04-25T11:10:43.036032Z",
      "apogee_km": 360.8319663864031,
      "perigee_km": 359.07197754692424,
      "latitude_deg": -3.684799371421837e-05,
      "longitude_deg": 164.48355301890024,
      "height_km": 360.84828133783617,
      "semi_major_axis_km": 6738.088971966663,
      "eccentricity": 0.0001306,
      "inclination_deg": 53.1597,
      "raan_deg": 185.6468,
      "arg_perigee_deg": 88.8923,
      "mean_anomaly_deg": 271.2244,
      "mean_motion_rev_day": 15.69631299
    },
    {
      "epoch": "2026-04-26T20:47:45.254400Z",
      "apogee_km": 360.4449586096125,
      "perigee_km": 359.00938926871277,
      "latitude_deg": 4.627183086952409e-05,
      "longitude_deg": 11.938159442379273,
      "height_km": 360.52910801045124,
      "semi_major_axis_km": 6737.864173939162,
      "eccentricity": 0.00010653,
      "inclination_deg": 53.1599,
      "raan_deg": 178.7412,
      "arg_perigee_deg": 81.0415,
      "mean_anomaly_deg": 279.0724,
      "mean_motion_rev_day": 15.69709852
    },
    {
      "epoch": "2026-04-27T15:07:58.974816Z",
      "apogee_km": 360.6577015197645,
      "perigee_km": 358.936833107894,
      "latitude_deg": 2.995458790904181e-05,
      "longitude_deg": 92.35419971265864,
      "height_km": 360.8714353525698,
      "semi_major_axis_km": 6737.934267313829,
      "eccentricity": 0.0001277,
      "inclination_deg": 53.158,
      "raan_deg": 174.9675,
      "arg_perigee_deg": 100.7814,
      "mean_anomaly_deg": 259.3348,
      "mean_motion_rev_day": 15.69685358
    },
    {
      "epoch": "2026-04-28T20:09:57.572352Z",
      "apogee_km": 360.3753491286079,
      "perigee_km": 359.07763661987883,
      "latitude_deg": -4.605532765710252e-06,
      "longitude_deg": 9.709477831065351,
      "height_km": 360.4874285213552,
      "semi_major_axis_km": 6737.863492874243,
      "eccentricity": 9.63e-05,
      "inclination_deg": 53.1582,
      "raan_deg": 169.0093,
      "arg_perigee_deg": 76.3841,
      "mean_anomaly_deg": 283.7284,
      "mean_motion_rev_day": 15.6971009
    },
    {
      "epoch": "2026-04-29T12:58:28.920864Z",
      "apogee_km": 360.4953741760319,
      "perigee_km": 359.0116906807925,
      "latitude_deg": 1.8975869827742163e-06,
      "longitude_deg": 113.43555502185629,
      "height_km": 360.48201837872347,
      "semi_major_axis_km": 6737.890532428412,
      "eccentricity": 0.0001101,
      "inclination_deg": 53.1587,
      "raan_deg": 165.5563,
      "arg_perigee_deg": 75.5532,
      "mean_anomaly_deg": 284.5608,
      "mean_motion_rev_day": 15.69700641
    },
    {
      "epoch": "2026-04-30T11:53:44.229984Z",
      "apogee_km": 360.40089579629966,
      "perigee_km": 359.05817375325023,
      "latitude_deg": -1.4520415307453024e-05,
      "longitude_deg": 123.97172597238854,
      "height_km": 360.5237117760427,
      "semi_major_axis_km": 6737.866534774775,
      "eccentricity": 9.964e-05,
      "inclination_deg": 53.159,
      "raan_deg": 160.8476,
      "arg_perigee_deg": 79.7438,
      "mean_anomaly_deg": 280.3692,
      "mean_motion_rev_day": 15.69709027
    },
    {
      "epoch": "2026-05-02T08:12:35.000064Z",
      "apogee_km": 360.6706272644469,
      "perigee_km": 358.87564800378004,
      "latitude_deg": 6.984901604918819e-06,
      "longitude_deg": 168.33948211690574,
      "height_km": 360.6095581626682,
      "semi_major_axis_km": 6737.910137634113,
      "eccentricity": 0.0001332,
      "inclination_deg": 53.1596,
      "raan_deg": 151.7468,
      "arg_perigee_deg": 85.086,
      "mean_anomaly_deg": 275.031,
      "mean_motion_rev_day": 15.6969379
    },
    {
      "epoch": "2026-05-03T08:39:30.524544Z",
      "apogee_km": 360.71376286086706,
      "perigee_km": 358.7764869923067,
      "latitude_deg": 1.163297149740686e-05,
      "longitude_deg": 155.58185626325673,
      "height_km": 360.1219188499224,
      "semi_major_axis_km": 6737.882124926587,
      "eccentricity": 0.00014376,
      "inclination_deg": 53.1587,
      "raan_deg": 146.7246,
      "arg_perigee_deg": 56.3601,
      "mean_anomaly_deg": 303.7554,
      "mean_motion_rev_day": 15.69703579
    }
  ]
}